[{"OBJECT_NAME":"ONEWEB-0260","OBJECT_ID":"2021-060M","EPOCH":"2026-03-09T21:55:06.533184","MEAN_MOTION":13.16594129,"ECCENTRICITY":0.00012413,"INCLINATION":87.9004,"RA_OF_ASC_NODE":248.5331,"ARG_OF_PERICENTER":101.9585,"MEAN_ANOMALY":258.1685,"EPHEMERIS_TYPE":0,"CLASSIFICATION_TYPE":"U","NORAD_CAT_ID":48978,"ELEMENT_SET_NO":999,"REV_AT_EPOCH":22654,"BSTAR":-0.00014419331,"MEAN_MOTION_DOT":-4.2e-7,"MEAN_MOTION_DDOT":0},{"OBJECT_NAME":"DELTA 1 DEB","OBJECT_ID":"1975-052KT","EPOCH":"2026-03-09T15:25:16.155840","MEAN_MOTION":13.31049951,"ECCENTRICITY":0.0082965,"INCLINATION":100.1242,"RA_OF_ASC_NODE":357.6704,"ARG_OF_PERICENTER":123.6633,"MEAN_ANOMALY":356.2314,"EPHEMERIS_TYPE":0,"CLASSIFICATION_TYPE":"U","NORAD_CAT_ID":26839,"ELEMENT_SET_NO":999,"REV_AT_EPOCH":65321,"BSTAR":0.00054637,"MEAN_MOTION_DOT":2.21e-6,"MEAN_MOTION_DDOT":0}]
